{"type": "FeatureCollection", "features": [ {"type": "Feature", "properties": {"norad_id": 36011, "name": "IRIDIUM 33 DEB", "group": "iridium-33-debris", "lat": 85.77265640012635, "lon": 151.35595246315452, "alt_km": 746.9834365813622, "timestamp": "2025-12-22T05:49:03.886918+00:00", "meta": {"OBJECT_NAME": "IRIDIUM 33 DEB", "OBJECT_ID": "1997-051US", "EPOCH": "2025-12-20T20:53:54.330144", "MEAN_MOTION": 14.41351593, "ECCENTRICITY": 0.0018529, "INCLINATION": 86.3402, "RA_OF_ASC_NODE": 31.9321, "ARG_OF_PERICENTER": 188.5725, "MEAN_ANOMALY": 351.0197, "EPHEMERIS_TYPE": 0, "CLASSIFICATION_TYPE": "U", "NORAD_CAT_ID": 36011, "ELEMENT_SET_NO": 999, "REV_AT_EPOCH": 64657, "BSTAR": 0.00031216, "MEAN_MOTION_DOT": 1.032e-05, "MEAN_MOTION_DDOT": 0}, "tle": {"line1": "1 36011U 97051US  25354.87076771  .00001032  00000+0  31216-3 0  9996", "line2": "2 36011  86.3402  31.9321 0018529 188.5725 351.0197 14.41351593646576"}}, "geometry": {"type": "Point", "coordinates": [151.35595246315452, 85.77265640012635]}}, {"type": "Feature", "properties": {"norad_id": 36012, "name": "IRIDIUM 33 DEB", "group": "iridium-33-debris", "lat": -18.93407289748893, "lon": -57.52316150809622, "alt_km": 878.4837397654046, "timestamp": "2025-12-22T05:49:03.886928+00:00", "meta": {"OBJECT_NAME": "IRIDIUM 33 DEB", "OBJECT_ID": "1997-051UT", "EPOCH": "2025-12-21T14:40:45.615648", "MEAN_MOTION": 14.192189, "ECCENTRICITY": 0.021114, "INCLINATION": 86.4405, "RA_OF_ASC_NODE": 303.9547, "ARG_OF_PERICENTER": 234.6485, "MEAN_ANOMALY": 123.481, "EPHEMERIS_TYPE": 0, "CLASSIFICATION_TYPE": "U", "NORAD_CAT_ID": 36012, "ELEMENT_SET_NO": 999, "REV_AT_EPOCH": 65610, "BSTAR": 0.0033212, "MEAN_MOTION_DOT": 8.712e-05, "MEAN_MOTION_DDOT": 0}, "tle": {"line1": "1 36012U 97051UT  25355.61163907  .00008712  00000+0  33212-2 0  9997", "line2": "2 36012  86.4405 303.9547 0211140 234.6485 123.4810 14.19218900656105"}}, "geometry": {"type": "Point", "coordinates": [-57.52316150809622, -18.93407289748893]}}, {"type": "Feature", "properties": {"norad_id": 36028, "name": "IRIDIUM 33 DEB", "group": "iridium-33-debris", "lat": 29.23097129648481, "lon": 120.16416934924783, "alt_km": 587.8298796125482, "timestamp": "2025-12-22T05:49:03.886938+00:00", "meta": {"OBJECT_NAME": "IRIDIUM 33 DEB", "OBJECT_ID": "1997-051VK", "EPOCH": "2025-12-19T03:17:05.091936", "MEAN_MOTION": 14.95591145, "ECCENTRICITY": 0.00208389, "INCLINATION": 86.3218, "RA_OF_ASC_NODE": 303.6882, "ARG_OF_PERICENTER": 33.6007, "MEAN_ANOMALY": 326.6539, "EPHEMERIS_TYPE": 0, "CLASSIFICATION_TYPE": "U", "NORAD_CAT_ID": 36028, "ELEMENT_SET_NO": 999, "REV_AT_EPOCH": 87220, "BSTAR": 0.001783846, "MEAN_MOTION_DOT": 0.00019939, "MEAN_MOTION_DDOT": 0}, "tle": {"line1": "1 36028U 97051VK  25353.13686449  .00019939  00000+0  17838-2 0  9999", "line2": "2 36028  86.3218 303.6882 0020838  33.6007 326.6539 14.95591145872206"}}, "geometry": {"type": "Point", "coordinates": [120.16416934924783, 29.23097129648481]}}, {"type": "Feature", "properties": {"norad_id": 36080, "name": "IRIDIUM 33 DEB", "group": "iridium-33-debris", "lat": 41.37119465888953, "lon": -179.4028619154893, "alt_km": 720.275152218519, "timestamp": "2025-12-22T05:49:03.886949+00:00", "meta": {"OBJECT_NAME": "IRIDIUM 33 DEB", "OBJECT_ID": "1997-051VM", "EPOCH": "2025-12-19T07:27:26.572608", "MEAN_MOTION": 14.4663152, "ECCENTRICITY": 0.0018893, "INCLINATION": 86.3193, "RA_OF_ASC_NODE": 5.1242, "ARG_OF_PERICENTER": 135.9522, "MEAN_ANOMALY": 224.319, "EPHEMERIS_TYPE": 0, "CLASSIFICATION_TYPE": "U", "NORAD_CAT_ID": 36080, "ELEMENT_SET_NO": 999, "REV_AT_EPOCH": 47509, "BSTAR": 0.00042458, "MEAN_MOTION_DOT": 1.555e-05, "MEAN_MOTION_DDOT": 0}, "tle": {"line1": "1 36080U 97051VM  25353.31072422  .00001555  00000+0  42458-3 0  9999", "line2": "2 36080  86.3193   5.1242 0018893 135.9522 224.3190 14.46631520475097"}}, "geometry": {"type": "Point", "coordinates": [-179.4028619154893, 41.37119465888953]}}, {"type": "Feature", "properties": {"norad_id": 36083, "name": "IRIDIUM 33 DEB", "group": "iridium-33-debris", "lat": 65.66956954027533, "lon": -158.070943857714, "alt_km": 737.1364990642633, "timestamp": "2025-12-22T05:49:03.886959+00:00", "meta": {"OBJECT_NAME": "IRIDIUM 33 DEB", "OBJECT_ID": "1997-051VQ", "EPOCH": "2025-12-21T09:19:18.145344", "MEAN_MOTION": 14.43234813, "ECCENTRICITY": 0.00261912, "INCLINATION": 86.3424, "RA_OF_ASC_NODE": 30.4295, "ARG_OF_PERICENTER": 193.4541, "MEAN_ANOMALY": 166.5965, "EPHEMERIS_TYPE": 0, "CLASSIFICATION_TYPE": "U", "NORAD_CAT_ID": 36083, "ELEMENT_SET_NO": 999, "REV_AT_EPOCH": 85574, "BSTAR": 0.00039895396, "MEAN_MOTION_DOT": 1.367e-05, "MEAN_MOTION_DDOT": 0}, "tle": {"line1": "1 36083U 97051VQ  25355.38840446  .00001367  00000+0  39895-3 0  9992", "line2": "2 36083  86.3424  30.4295 0026191 193.4541 166.5965 14.43234813855748"}}, "geometry": {"type": "Point", "coordinates": [-158.070943857714, 65.66956954027533]}}, {"type": "Feature", "properties": {"norad_id": 36390, "name": "IRIDIUM 33 DEB", "group": "iridium-33-debris", "lat": -72.82580584724388, "lon": 127.15221228266027, "alt_km": 668.8716101389509, "timestamp": "2025-12-22T05:49:03.886969+00:00", "meta": {"OBJECT_NAME": "IRIDIUM 33 DEB", "OBJECT_ID": "1997-051VU", "EPOCH": "2025-12-18T02:53:50.749728", "MEAN_MOTION": 14.73679499, "ECCENTRICITY": 0.00315796, "INCLINATION": 86.2911, "RA_OF_ASC_NODE": 296.9257, "ARG_OF_PERICENTER": 143.7695, "MEAN_ANOMALY": 216.5671, "EPHEMERIS_TYPE": 0, "CLASSIFICATION_TYPE": "U", "NORAD_CAT_ID": 36390, "ELEMENT_SET_NO": 999, "REV_AT_EPOCH": 66341, "BSTAR": 0.00081895703, "MEAN_MOTION_DOT": 5.409e-05, "MEAN_MOTION_DDOT": 0}, "tle": {"line1": "1 36390U 97051VU  25352.12072627  .00005409  00000+0  81896-3 0  9999", "line2": "2 36390  86.2911 296.9257 0031579 143.7695 216.5671 14.73679499663417"}}, "geometry": {"type": "Point", "coordinates": [127.15221228266027, -72.82580584724388]}}, {"type": "Feature", "properties": {"norad_id": 36483, "name": "IRIDIUM 33 DEB", "group": "iridium-33-debris", "lat": 6.545571372448627, "lon": 48.8381285298072, "alt_km": 741.8279911855143, "timestamp": "2025-12-22T05:49:03.886979+00:00", "meta": {"OBJECT_NAME": "IRIDIUM 33 DEB", "OBJECT_ID": "1997-051VZ", "EPOCH": "2025-12-21T09:51:19.840320", "MEAN_MOTION": 14.4583718, "ECCENTRICITY": 0.00113273, "INCLINATION": 86.3785, "RA_OF_ASC_NODE": 48.7778, "ARG_OF_PERICENTER": 102.2309, "MEAN_ANOMALY": 258.0162, "EPHEMERIS_TYPE": 0, "CLASSIFICATION_TYPE": "U", "NORAD_CAT_ID": 36483, "ELEMENT_SET_NO": 999, "REV_AT_EPOCH": 65271, "BSTAR": 0.00036535709, "MEAN_MOTION_DOT": 1.317e-05, "MEAN_MOTION_DDOT": 0}, "tle": {"line1": "1 36483U 97051VZ  25355.41064630  .00001317  00000+0  36536-3 0  9997", "line2": "2 36483  86.3785  48.7778 0011327 102.2309 258.0162 14.45837180652711"}}, "geometry": {"type": "Point", "coordinates": [48.8381285298072, 6.545571372448627]}}, {"type": "Feature", "properties": {"norad_id": 36490, "name": "IRIDIUM 33 DEB", "group": "iridium-33-debris", "lat": -44.320362179198355, "lon": -170.26407145594467, "alt_km": 651.1702793821687, "timestamp": "2025-12-22T05:49:03.886989+00:00", "meta": {"OBJECT_NAME": "IRIDIUM 33 DEB", "OBJECT_ID": "1997-051WG", "EPOCH": "2025-12-20T18:38:39.578208", "MEAN_MOTION": 14.76343752, "ECCENTRICITY": 0.00052455, "INCLINATION": 86.365, "RA_OF_ASC_NODE": 6.8378, "ARG_OF_PERICENTER": 65.8032, "MEAN_ANOMALY": 294.3734, "EPHEMERIS_TYPE": 0, "CLASSIFICATION_TYPE": "U", "NORAD_CAT_ID": 36490, "ELEMENT_SET_NO": 999, "REV_AT_EPOCH": 86603, "BSTAR": 0.00097886565, "MEAN_MOTION_DOT": 6.818e-05, "MEAN_MOTION_DDOT": 0}, "tle": {"line1": "1 36490U 97051WG  25354.77684697  .00006818  00000+0  97887-3 0  9991", "line2": "2 36490  86.3650   6.8378 0005245  65.8032 294.3734 14.76343752866031"}}, "geometry": {"type": "Point", "coordinates": [-170.26407145594467, -44.320362179198355]}}, {"type": "Feature", "properties": {"norad_id": 36493, "name": "IRIDIUM 33 DEB", "group": "iridium-33-debris", "lat": 48.44525418385588, "lon": -176.6643112147864, "alt_km": 677.9271338704402, "timestamp": "2025-12-22T05:49:03.886999+00:00", "meta": {"OBJECT_NAME": "IRIDIUM 33 DEB", "OBJECT_ID": "1997-051WK", "EPOCH": "2025-12-20T07:19:49.672128", "MEAN_MOTION": 14.65320442, "ECCENTRICITY": 0.00093315, "INCLINATION": 86.3566, "RA_OF_ASC_NODE": 8.3183, "ARG_OF_PERICENTER": 338.064, "MEAN_ANOMALY": 22.0172, "EPHEMERIS_TYPE": 0, "CLASSIFICATION_TYPE": "U", "NORAD_CAT_ID": 36493, "ELEMENT_SET_NO": 999, "REV_AT_EPOCH": 74629, "BSTAR": 0.0008112231, "MEAN_MOTION_DOT": 4.401e-05, "MEAN_MOTION_DDOT": 0}, "tle": {"line1": "1 36493U 97051WK  25354.30543602  .00004401  00000+0  81122-3 0  9994", "line2": "2 36493  86.3566   8.3183 0009331 338.0640  22.0172 14.65320442746297"}}, "geometry": {"type": "Point", "coordinates": [-176.6643112147864, 48.44525418385588]}}, {"type": "Feature", "properties": {"norad_id": 37548, "name": "IRIDIUM 33 DEB", "group": "iridium-33-debris", "lat": -21.993987934473672, "lon": -139.28901261658055, "alt_km": 713.6413163079205, "timestamp": "2025-12-22T05:49:03.887009+00:00", "meta": {"OBJECT_NAME": "IRIDIUM 33 DEB", "OBJECT_ID": "1997-051XH", "EPOCH": "2025-12-15T20:39:30.861504", "MEAN_MOTION": 14.51326297, "ECCENTRICITY": 0.00258157, "INCLINATION": 86.3522, "RA_OF_ASC_NODE": 42.0105, "ARG_OF_PERICENTER": 178.4192, "MEAN_ANOMALY": 181.71, "EPHEMERIS_TYPE": 0, "CLASSIFICATION_TYPE": "U", "NORAD_CAT_ID": 37548, "ELEMENT_SET_NO": 999, "REV_AT_EPOCH": 65577, "BSTAR": 0.00067405053, "MEAN_MOTION_DOT": 2.715e-05, "MEAN_MOTION_DDOT": 0}, "tle": {"line1": "1 37548U 97051XH  25349.86077386  .00002715  00000+0  67405-3 0  9996", "line2": "2 37548  86.3522  42.0105 0025815 178.4192 181.7100 14.51326297655778"}}, "geometry": {"type": "Point", "coordinates": [-139.28901261658055, -21.993987934473672]}}]}